[
    {
        "Altitude(m)": 617719.7947673002,
        "Argument of Periapsis(deg)": 0.0,
        "Eccentricity": 0.0,
        "Inclination(deg)": 60.0,
        "Latitude(deg)": -41.10270460240561,
        "Longitude(deg)": -69.90534644829546,
        "Mean Anomaly(deg)": -130.90909999999997,
        "RAAN(deg)": 180.0,
        "Satellite Name": "Test1 806",
        "Satellite Number": 806,
        "Semi-Major Axis(m)": 6980739.136638005,
        "Time(s)": 0
    },
    {
        "Altitude(m)": 617911.3306971302,
        "Argument of Periapsis(deg)": 0.00010418945913296404,
        "Eccentricity": 0.0,
        "Inclination(deg)": 60.0,
        "Latitude(deg)": -41.565896502961344,
        "Longitude(deg)": -69.40093929279735,
        "Mean Anomaly(deg)": -130.28899385453815,
        "RAAN(deg)": 179.99957995086024,
        "Satellite Name": "Test1 806",
        "Satellite Number": 806,
        "Semi-Major Axis(m)": 6980739.136638005,
        "Time(s)": 10
    }
]